[
{"CCSDS_OMM_VERS":"2.0",
"COMMENT":"GENERATED VIA SPACE-TRACK.ORG API",
"CREATION_DATE":"2022-03-05T13:52:50",
"ORIGINATOR":"18 SPCS",
"OBJECT_NAME":"VANGUARD 1",
"OBJECT_ID":"1958-002B",
"CENTER_NAME":"EARTH",
"REF_FRAME":"TEME",
"TIME_SYSTEM":"UTC",
"MEAN_ELEMENT_THEORY":"SGP4",
"EPOCH":"2022-03-05T03:55:54.468768",
"MEAN_MOTION":"10.84871295",
"ECCENTRICITY":"0.18452280",
"INCLINATION":"34.2571",
"RA_OF_ASC_NODE":"100.7545",
"ARG_OF_PERICENTER":"288.1488",
"MEAN_ANOMALY":"52.7416",
"EPHEMERIS_TYPE":"0",
"CLASSIFICATION_TYPE":"U",
"NORAD_CAT_ID":"5",
"ELEMENT_SET_NO":"999",
"REV_AT_EPOCH":"27321",
"BSTAR":"0.00043392000000",
"MEAN_MOTION_DOT":"0.00000356",
"MEAN_MOTION_DDOT":"0.0000000000000",
"SEMIMAJOR_AXIS":"8619.519",
"PERIOD":"132.735",
"APOAPSIS":"3831.882",
"PERIAPSIS":"650.886",
"OBJECT_TYPE":"PAYLOAD",
"RCS_SIZE":"SMALL",
"COUNTRY_CODE":"US",
"LAUNCH_DATE":"1958-03-17",
"SITE":"AFETR",
"DECAY_DATE":null,
"FILE":"3345400",
"GP_ID":"197919231",
"TLE_LINE0":"0 VANGUARD 1",
"TLE_LINE1":"1 00005U 58002B   22064.16382487  .00000356  00000-0  43392-3 0  9991",
"TLE_LINE2":"2 00005  34.2571 100.7545 1845228 288.1488  52.7416 10.84871295273215"},
{"CCSDS_OMM_VERS":"2.0",
"COMMENT":"GENERATED VIA SPACE-TRACK.ORG API",
"CREATION_DATE":"2022-03-05T06:46:12",
"ORIGINATOR":"18 SPCS",
"OBJECT_NAME":"VANGUARD 1",
"OBJECT_ID":"1958-002B",
"CENTER_NAME":"EARTH",
"REF_FRAME":"TEME",
"TIME_SYSTEM":"UTC",
"MEAN_ELEMENT_THEORY":"SGP4",
"EPOCH":"2022-03-05T03:55:54.468768",
"MEAN_MOTION":"10.84871295",
"ECCENTRICITY":"0.18452280",
"INCLINATION":"34.2571",
"RA_OF_ASC_NODE":"100.7545",
"ARG_OF_PERICENTER":"288.1488",
"MEAN_ANOMALY":"52.7416",
"EPHEMERIS_TYPE":"0",
"CLASSIFICATION_TYPE":"U",
"NORAD_CAT_ID":"5",
"ELEMENT_SET_NO":"999",
"REV_AT_EPOCH":"27330",
"BSTAR":"0.00043392000000",
"MEAN_MOTION_DOT":"0.00000356",
"MEAN_MOTION_DDOT":"0.0000000000000",
"SEMIMAJOR_AXIS":"8619.519",
"PERIOD":"132.735",
"APOAPSIS":"3831.882",
"PERIAPSIS":"650.886",
"OBJECT_TYPE":"PAYLOAD",
"RCS_SIZE":"SMALL",
"COUNTRY_CODE":"US",
"LAUNCH_DATE":"1958-03-17",
"SITE":"AFETR",
"DECAY_DATE":null,
"FILE":"3345015",
"GP_ID":"197911923",
"TLE_LINE0":"0 VANGUARD 1",
"TLE_LINE1":"1     5U 58002B   22064.16382487  .00000356  00000-0  43392-3 0  9991",
"TLE_LINE2":"2     5  34.2571 100.7545 1845228 288.1488  52.7416 10.84871295273305"},
{"CCSDS_OMM_VERS":"2.0",
"COMMENT":"GENERATED VIA SPACE-TRACK.ORG API",
"CREATION_DATE":"2022-03-05T19:30:43",
"ORIGINATOR":"18 SPCS",
"OBJECT_NAME":"VANGUARD 1",
"OBJECT_ID":"1958-002B",
"CENTER_NAME":"EARTH",
"REF_FRAME":"TEME",
"TIME_SYSTEM":"UTC",
"MEAN_ELEMENT_THEORY":"SGP4",
"EPOCH":"2022-03-05T08:21:07.092864",
"MEAN_MOTION":"10.84871417",
"ECCENTRICITY":"0.18452300",
"INCLINATION":"34.2571",
"RA_OF_ASC_NODE":"100.1873",
"ARG_OF_PERICENTER":"288.9772",
"MEAN_ANOMALY":"52.0398",
"EPHEMERIS_TYPE":"0",
"CLASSIFICATION_TYPE":"U",
"NORAD_CAT_ID":"5",
"ELEMENT_SET_NO":"999",
"REV_AT_EPOCH":"27323",
"BSTAR":"0.00043518000000",
"MEAN_MOTION_DOT":"0.00000357",
"MEAN_MOTION_DDOT":"0.0000000000000",
"SEMIMAJOR_AXIS":"8619.518",
"PERIOD":"132.735",
"APOAPSIS":"3831.883",
"PERIAPSIS":"650.884",
"OBJECT_TYPE":"PAYLOAD",
"RCS_SIZE":"SMALL",
"COUNTRY_CODE":"US",
"LAUNCH_DATE":"1958-03-17",
"SITE":"AFETR",
"DECAY_DATE":null,
"FILE":"3346052",
"GP_ID":"197960254",
"TLE_LINE0":"0 VANGUARD 1",
"TLE_LINE1":"1 00005U 58002B   22064.34799876  .00000357  00000-0  43518-3 0  9996",
"TLE_LINE2":"2 00005  34.2571 100.1873 1845230 288.9772  52.0398 10.84871417273230"},
{"CCSDS_OMM_VERS":"2.0",
"COMMENT":"GENERATED VIA SPACE-TRACK.ORG API",
"CREATION_DATE":"2022-03-06T04:08:41",
"ORIGINATOR":"18 SPCS",
"OBJECT_NAME":"VANGUARD 1",
"OBJECT_ID":"1958-002B",
"CENTER_NAME":"EARTH",
"REF_FRAME":"TEME",
"TIME_SYSTEM":"UTC",
"MEAN_ELEMENT_THEORY":"SGP4",
"EPOCH":"2022-03-05T19:24:08.955936",
"MEAN_MOTION":"10.84871836",
"ECCENTRICITY":"0.18452270",
"INCLINATION":"34.2569",
"RA_OF_ASC_NODE":"98.7695",
"ARG_OF_PERICENTER":"291.0479",
"MEAN_ANOMALY":"50.2999",
"EPHEMERIS_TYPE":"0",
"CLASSIFICATION_TYPE":"U",
"NORAD_CAT_ID":"5",
"ELEMENT_SET_NO":"999",
"REV_AT_EPOCH":"27328",
"BSTAR":"0.00045935000000",
"MEAN_MOTION_DOT":"0.00000375",
"MEAN_MOTION_DDOT":"0.0000000000000",
"SEMIMAJOR_AXIS":"8619.516",
"PERIOD":"132.735",
"APOAPSIS":"3831.877",
"PERIAPSIS":"650.885",
"OBJECT_TYPE":"PAYLOAD",
"RCS_SIZE":"MEDIUM",
"COUNTRY_CODE":"US",
"LAUNCH_DATE":"1958-03-17",
"SITE":"AFETR",
"DECAY_DATE":null,
"FILE":"3346512",
"GP_ID":"197996948",
"TLE_LINE0":"0 VANGUARD 1",
"TLE_LINE1":"1 00005U 58002B   22064.80843699  .00000375  00000-0  45935-3 0  9995",
"TLE_LINE2":"2 00005  34.2569  98.7695 1845227 291.0479  50.2999 10.84871836273283"},
{"CCSDS_OMM_VERS":"2.0",
"COMMENT":"GENERATED VIA SPACE-TRACK.ORG API",
"CREATION_DATE":"2022-03-06T18:20:12",
"ORIGINATOR":"18 SPCS",
"OBJECT_NAME":"VANGUARD 1",
"OBJECT_ID":"1958-002B",
"CENTER_NAME":"EARTH",
"REF_FRAME":"TEME",
"TIME_SYSTEM":"UTC",
"MEAN_ELEMENT_THEORY":"SGP4",
"EPOCH":"2022-03-06T10:52:24.285504",
"MEAN_MOTION":"10.84872524",
"ECCENTRICITY":"0.18452280",
"INCLINATION":"34.2566",
"RA_OF_ASC_NODE":"96.7842",
"ARG_OF_PERICENTER":"293.9474",
"MEAN_ANOMALY":"47.8975",
"EPHEMERIS_TYPE":"0",
"CLASSIFICATION_TYPE":"U",
"NORAD_CAT_ID":"5",
"ELEMENT_SET_NO":"999",
"REV_AT_EPOCH":"27335",
"BSTAR":"0.00051205000000",
"MEAN_MOTION_DOT":"0.00000416",
"MEAN_MOTION_DDOT":"0.0000000000000",
"SEMIMAJOR_AXIS":"8619.512",
"PERIOD":"132.734",
"APOAPSIS":"3831.874",
"PERIAPSIS":"650.881",
"OBJECT_TYPE":"PAYLOAD",
"RCS_SIZE":"MEDIUM",
"COUNTRY_CODE":"US",
"LAUNCH_DATE":"1958-03-17",
"SITE":"AFETR",
"DECAY_DATE":null,
"FILE":"3347638",
"GP_ID":"198046474",
"TLE_LINE0":"0 VANGUARD 1",
"TLE_LINE1":"1 00005U 58002B   22065.45305886  .00000416  00000-0  51205-3 0  9991",
"TLE_LINE2":"2 00005  34.2566  96.7842 1845228 293.9474  47.8975 10.84872524273358"},
{"CCSDS_OMM_VERS":"2.0",
"COMMENT":"GENERATED VIA SPACE-TRACK.ORG API",
"CREATION_DATE":"2022-03-07T22:17:09",
"ORIGINATOR":"18 SPCS",
"OBJECT_NAME":"VANGUARD 1",
"OBJECT_ID":"1958-002B",
"CENTER_NAME":"EARTH",
"REF_FRAME":"TEME",
"TIME_SYSTEM":"UTC",
"MEAN_ELEMENT_THEORY":"SGP4",
"EPOCH":"2022-03-07T08:58:30.474912",
"MEAN_MOTION":"10.84872964",
"ECCENTRICITY":"0.18452310",
"INCLINATION":"34.2562",
"RA_OF_ASC_NODE":"93.9480",
"ARG_OF_PERICENTER":"298.0899",
"MEAN_ANOMALY":"44.5304",
"EPHEMERIS_TYPE":"0",
"CLASSIFICATION_TYPE":"U",
"NORAD_CAT_ID":"5",
"ELEMENT_SET_NO":"999",
"REV_AT_EPOCH":"27345",
"BSTAR":"0.00047539000000",
"MEAN_MOTION_DOT":"0.00000386",
"MEAN_MOTION_DDOT":"0.0000000000000",
"SEMIMAJOR_AXIS":"8619.510",
"PERIOD":"132.734",
"APOAPSIS":"3831.874",
"PERIAPSIS":"650.876",
"OBJECT_TYPE":"PAYLOAD",
"RCS_SIZE":"MEDIUM",
"COUNTRY_CODE":"US",
"LAUNCH_DATE":"1958-03-17",
"SITE":"AFETR",
"DECAY_DATE":null,
"FILE":"3349338",
"GP_ID":"198132239",
"TLE_LINE0":"0 VANGUARD 1",
"TLE_LINE1":"1 00005U 58002B   22066.37396383  .00000386  00000-0  47539-3 0  9996",
"TLE_LINE2":"2 00005  34.2562  93.9480 1845231 298.0899  44.5304 10.84872964273451"},
{"CCSDS_OMM_VERS":"2.0",
"COMMENT":"GENERATED VIA SPACE-TRACK.ORG API",
"CREATION_DATE":"2022-03-07T14:36:12",
"ORIGINATOR":"18 SPCS",
"OBJECT_NAME":"VANGUARD 1",
"OBJECT_ID":"1958-002B",
"CENTER_NAME":"EARTH",
"REF_FRAME":"TEME",
"TIME_SYSTEM":"UTC",
"MEAN_ELEMENT_THEORY":"SGP4",
"EPOCH":"2022-03-07T08:58:30.474912",
"MEAN_MOTION":"10.84872964",
"ECCENTRICITY":"0.18452310",
"INCLINATION":"34.2562",
"RA_OF_ASC_NODE":"93.9480",
"ARG_OF_PERICENTER":"298.0899",
"MEAN_ANOMALY":"44.5304",
"EPHEMERIS_TYPE":"0",
"CLASSIFICATION_TYPE":"U",
"NORAD_CAT_ID":"5",
"ELEMENT_SET_NO":"999",
"REV_AT_EPOCH":"27354",
"BSTAR":"0.00047539000000",
"MEAN_MOTION_DOT":"0.00000386",
"MEAN_MOTION_DDOT":"0.0000000000000",
"SEMIMAJOR_AXIS":"8619.510",
"PERIOD":"132.734",
"APOAPSIS":"3831.874",
"PERIAPSIS":"650.876",
"OBJECT_TYPE":"PAYLOAD",
"RCS_SIZE":"MEDIUM",
"COUNTRY_CODE":"US",
"LAUNCH_DATE":"1958-03-17",
"SITE":"AFETR",
"DECAY_DATE":null,
"FILE":"3349015",
"GP_ID":"198124242",
"TLE_LINE0":"0 VANGUARD 1",
"TLE_LINE1":"1     5U 58002B   22066.37396383  .00000386  00000-0  47539-3 0  9996",
"TLE_LINE2":"2     5  34.2562  93.9480 1845231 298.0899  44.5304 10.84872964273541"},
{"CCSDS_OMM_VERS":"2.0",
"COMMENT":"GENERATED VIA SPACE-TRACK.ORG API",
"CREATION_DATE":"2022-03-08T22:01:31",
"ORIGINATOR":"18 SPCS",
"OBJECT_NAME":"VANGUARD 1",
"OBJECT_ID":"1958-002B",
"CENTER_NAME":"EARTH",
"REF_FRAME":"TEME",
"TIME_SYSTEM":"UTC",
"MEAN_ELEMENT_THEORY":"SGP4",
"EPOCH":"2022-03-08T09:17:15.047808",
"MEAN_MOTION":"10.84873641",
"ECCENTRICITY":"0.18452200",
"INCLINATION":"34.2557",
"RA_OF_ASC_NODE":"90.8281",
"ARG_OF_PERICENTER":"302.6468",
"MEAN_ANOMALY":"40.9096",
"EPHEMERIS_TYPE":"0",
"CLASSIFICATION_TYPE":"U",
"NORAD_CAT_ID":"5",
"ELEMENT_SET_NO":"999",
"REV_AT_EPOCH":"27356",
"BSTAR":"0.00046511000000",
"MEAN_MOTION_DOT":"0.00000377",
"MEAN_MOTION_DDOT":"0.0000000000000",
"SEMIMAJOR_AXIS":"8619.507",
"PERIOD":"132.734",
"APOAPSIS":"3831.860",
"PERIAPSIS":"650.883",
"OBJECT_TYPE":"PAYLOAD",
"RCS_SIZE":"MEDIUM",
"COUNTRY_CODE":"US",
"LAUNCH_DATE":"1958-03-17",
"SITE":"AFETR",
"DECAY_DATE":null,
"FILE":"3350976",
"GP_ID":"198218940",
"TLE_LINE0":"0 VANGUARD 1",
"TLE_LINE1":"1 00005U 58002B   22067.38697972  .00000377  00000-0  46511-3 0  9995",
"TLE_LINE2":"2 00005  34.2557  90.8281 1845220 302.6468  40.9096 10.84873641273565"}]